XRISM                   
1 57800U 23137A   24146.48648788  .00004154  00000+0  31143-3 0  9994
2 57800  31.0014 157.0901 0009509 341.7135  18.3157 15.00975517 39198
